#cP2019  6 26  0  0  0.00000000      96 ORBIT IGS14 HLM  IGS
## 2059 259200.00000000   900.00000000 58660 0.0000000000000
+   32   G01G02G03G04G05G06G07G08G09G10G11G12G13G14G15G16G17
+        G18G19G20G21G22G23G24G25G26G27G28G29G30G31G32  0  0
+          0  0  0  0  0  0  0  0  0  0  0  0  0  0  0  0  0
+          0  0  0  0  0  0  0  0  0  0  0  0  0  0  0  0  0
+          0  0  0  0  0  0  0  0  0  0  0  0  0  0  0  0  0
++         2  2  2  0  2  2  2  2  2  2  2  2  2  2  2  2  2
++         3  2  2  2  2  2  2  2  2  2  2  2  2  2  2  0  0
++         0  0  0  0  0  0  0  0  0  0  0  0  0  0  0  0  0
++         0  0  0  0  0  0  0  0  0  0  0  0  0  0  0  0  0
++         0  0  0  0  0  0  0  0  0  0  0  0  0  0  0  0  0
%c G  cc GPS ccc cccc cccc cccc cccc ccccc ccccc ccccc ccccc
%c cc cc ccc ccc cccc cccc cccc cccc ccccc ccccc ccccc ccccc
%f  1.2500000  1.025000000  0.00000000000  0.000000000000000
%f  0.0000000  0.000000000  0.00000000000  0.000000000000000
%i    0    0    0    0      0      0      0      0         0
%i    0    0    0    0      0      0      0      0         0
/* RAPID ORBIT COMBINATION FROM WEIGHTED AVERAGE OF:        
/* cod emr esa gfz jpl ngs sio usn whu                      
/* REFERENCED TO IGS TIME (IGST) AND TO WEIGHTED MEAN POLE: 
/* PCV:IGS14_2056 OL/AL:FES2004  NONE     Y  ORB:CMB CLK:CMB
*  2019  6 26  8 15  0.00000000
PG01 -22563.898228 -14312.996398    795.929922    -50.947525  7  9  6  84       
PG02   7851.169904  18834.008916  17688.684927   -246.176742  9  9  9  99       
PG03 -13003.723895 -12219.770253  19660.266108    184.092928  5  6  4  95       
PG04 -24165.340933  11014.722330    340.607651 999999.999999
PG05   2875.351398  25823.399154  -5072.416613      0.373616  8  8  5  95       
PG06  -6802.323180  13322.745879  21985.965221    167.205678  7  7  4  92       
PG07 -22672.471703  -3850.631403 -13430.296613    -52.080234  7  8  6  85       
PG08 -12209.869534 -10099.158513 -21319.961300   -148.864430  6  8  6  96       
PG09 -24556.351598   6966.746818   7322.061356    383.828427  6  3  5 103       
PG10  11434.556066 -18531.745565 -15002.988815      4.033352  6  6  3  52       
PG11 -22903.980409 -10113.334683  -8994.081029   -575.743690  5  9  6 105       
PG12  10755.314711  15186.239665  18800.480929    229.631709  7  7  8  91       
PG13   1856.486303  15260.846250 -21762.764362    -57.358141  6  4  4  81       
PG14  13096.292620 -17195.745028  15636.790899    -74.338836  4  7  4  83       
PG15  14282.524826   9330.157553 -20697.540414   -304.715522  6  6  2  77       
PG16   -163.441712 -25741.802429  -5712.809443    -51.158181  8  6  6 111       
PG17 -19788.288235  15332.998711   9148.950776     78.175762  5  6  4 103       
PG18 -18299.255998 -17634.671964  -8437.106912     65.031192  9  9 11  69       
PG19 -15337.679063  16110.078422  14256.190399   -301.841838  7  4  6 109       
PG20  14404.728811  -9670.119567 -20175.612349    525.625338  5  7  5  58       
PG21  20157.673502  -1917.731388 -16311.904710   -166.030654  4  5  5  68       
PG22 -11573.397386 -18850.003237  14996.401659   -722.565012  5  6  4  94       
PG23 -20103.296791  -3720.275103  17501.992353   -180.046696  5  2  5  87       
PG24  22038.599308  14963.092505  -2511.840476    -67.969234  7  5  5  92       
PG25  14892.890118    803.547174  21763.592600   -768.787696  6  5  2  77       
PG26   4606.741045 -25490.394377   5406.141644    236.351887  4  5  5 109       
PG27    730.202972 -16253.885870 -21039.877802   -168.089944  7  7  3 101       
PG28 -12462.267228  17967.425383 -14541.580643    767.151500  2  5  5  92       
PG29  24123.771988  -2484.674242  10810.616407    166.907146  4  7  6  71       
PG30 -16618.678063   5924.598612 -19883.357486   -131.209383  5  4  5  88       
PG31   5940.208573 -14257.987831  21564.394938     28.499310  3  6  5 102       
PG32  18505.460284 -16703.130592   9049.338290    -27.750847  6  5  2  63       
*  2019  6 26  8 30  0.00000000
PG01 -22422.555759 -14444.442513  -2070.008338    -50.956495  7  9  6  92       
PG02   6023.000382  18016.180086  19230.675221   -246.184564  9  9  8  90       
PG03 -12834.023598 -14390.812481  18263.598061    184.091491  5  6  4  76       
PG04 -24103.796311  10693.449580   3184.595045 999999.999999
PG05   2580.002706  26234.059993  -2267.727281      0.373687  8  8  5  92       
PG06  -8942.578349  12027.225406  21969.433790    167.195918  6  6  3  74       
PG07 -23775.342077  -4777.719134 -11111.098309    -52.087372  7  8  6  84       
PG08 -10076.573995 -11339.377957 -21787.224250   -148.865689  6  8  6 105       
PG09 -23819.139249   6254.298550   9923.542916    383.821291  6  3  5  96       
PG10  11578.358996 -16682.822880 -16947.185772      4.022221  6  6  4  80       
PG11 -21756.026949 -10355.726569 -11412.643083   -575.735865  5  8  6  77       
PG12  10459.546782  17253.782173  17143.626446    229.628440  7  8  7  90       
PG13   -423.827328  16114.286677 -21208.403471    -57.356688  6  4  5  71       
PG14  14657.249920 -17683.215414  13502.707971    -74.336995  4  6  4  63       
PG15  12364.466633  10691.209130 -21238.472520   -304.713324  6  6  2  72       
PG16    106.008221 -26188.171840  -2843.331603    -51.161155  8  5  6  95       
PG17 -20623.286009  15537.630166   6427.777419     78.181407  5  7  5  79       
PG18 -17273.661898 -17334.626368 -10977.096902 999999.999999
PG19 -16817.159540  16561.837896  11935.818949   -301.837604  6  4  6  97       
PG20  14731.825399  -7346.998886 -20923.508842    525.625728  5  6  4  83       
PG21  21723.457922   -827.400871 -14355.583814   -166.023023  4  5  5  94       
PG22 -11400.235843 -20426.783336  12890.869348   -722.570108  6  6  4  90       
PG23 -18418.992635  -4842.961220  19008.791971   -180.045241  5  2  5  71       
PG24  21529.040450  15013.364185  -5257.472857    -67.969259  7  4  5 100       
PG25  14822.991541   3325.793210  21595.087137   -768.790372  7  6  4  72       
PG26   4891.326204 -24710.774881   8109.526891    236.360233  4  5  5  86       
PG27   2810.392201 -17300.126681 -19972.377333   -168.099307  7  6  3 100       
PG28 -12397.465676  16089.961784 -16562.698437    767.151386  3  5  6  95       
PG29  22939.996672  -1763.237994  13245.428638    166.898492  5  7  7  49       
PG30 -18386.581251   4591.003089 -18660.797049   -131.216032  4  5  5  88       
PG31   8040.863450 -12936.098858  21755.420975     28.497144  3  6  5  91       
PG32  19399.060706 -16904.950673   6382.689299    -27.736635  6  5  3  73       
*  2019  6 26  8 45  0.00000000
PG01 -22007.282387 -14431.021386  -4901.096558    -50.965536  7  8  6  83       
PG02   4017.069558  17233.355439  20458.706247   -246.192510  9  8  8  91       
PG03 -12772.526292 -16390.985081  16552.592297    184.090066  5  6  5  87       
PG04 -23783.575959  10208.827740   5973.775860 999999.999999
PG05   2284.677363  26339.065367    576.433801      0.373342  8  8  6  85       
PG06 -11129.613101  10861.457296  21576.354241    167.186137  6  6  3  65       
PG07 -24685.251689  -5511.833208  -8603.089149    -52.094366  8  8  6  97       
PG08  -7984.437241 -12710.465421 -21879.094160   -148.866870  6  8  5  85       
PG09 -22879.732135   5350.680657  12354.047774    383.814093  6  3  5  90       
PG10  11825.737041 -14640.324549 -18596.087289      4.011094  6  5  4  47       
PG11 -20365.141715 -10633.130324 -13637.046490   -575.727665  6  8  5  59       
PG12  10285.796167  19126.330430  15188.939190    229.625351  8  8  7  87       
PG13  -2580.899742  17053.532534 -20292.341548    -57.355133  6  5  5  92       
PG14  15969.376207 -18133.726875  11138.426609    -74.335659  4  6  3  75       
PG15  10478.842890  12168.936210 -21423.659154   -304.711238  7  6  2  57       
PG16    336.192101 -26317.475684     76.281409    -51.163821  8  5  5 106       
PG17 -21173.777149  15633.906255   3596.621915     78.187499  4  7  5  88       
PG18 -15989.653505 -16970.868925 -13333.640749     65.036680  9  9 11  13       
PG19 -18018.933390  16972.089925   9407.421707   -301.833178  6  5  6  89       
PG20  15178.508629  -4980.649659 -21313.923248    525.625901  5  6  4  72       
PG21  23117.410982     79.996829 -12137.454458   -166.017662  4  6  5  79       
PG22 -11274.537508 -21764.951388  10567.183094   -722.575128  7  6  5 100       
PG23 -16667.231845  -6132.054612  20200.977723   -180.043563  5  2  5  79       
PG24  20749.474336  14960.209245  -7914.712113    -67.969347  8  3  6  93       
PG25  14885.609179   5804.528730  21048.354511   -768.793020  7  6  4  89       
PG26   5232.825490 -23648.110920  10671.806763    236.368716  4  5  5  88       
PG27   4714.231822 -18384.985269 -18561.684512   -168.108658  7  6  3  91       
PG28 -12425.051039  13990.820781 -18287.180600    767.150916  3  4  6 103       
PG29  21566.470323   -850.891542  15451.971431    166.890061  6  7  7  74       
PG30 -20082.319119   3426.014076 -17118.422269   -131.222667  4  5  5  81       
PG31  10203.911780 -11727.140835  21571.992929     28.494724  3  6  5  97       
PG32  20021.360636 -16986.200541   3605.583229    -27.722454  6  5  3  77       
EOF
